CCSDS_OMM_VERS = 2.0
CREATION_DATE  = 
ORIGINATOR     = 

OBJECT_NAME    = UNKNOWN
OBJECT_ID      = 
CENTER_NAME    = EARTH
REF_FRAME      = TEME
TIME_SYSTEM    = UTC
MEAN_ELEMENT_THEORY = SGP/SGP4

EPOCH          = 2026-01-13T02:37:18.498432
MEAN_MOTION    = 12.80518471
ECCENTRICITY   = .01701469
INCLINATION    = 102.8557
RA_OF_ASC_NODE = 126.1340
ARG_OF_PERICENTER = 327.5479
MEAN_ANOMALY   = 31.5233

EPHEMERIS_TYPE = 0
CLASSIFICATION_TYPE = U
NORAD_CAT_ID   = 270038
ELEMENT_SET_NO = 999
REV_AT_EPOCH   = 28441
BSTAR          = .42143201E-1
MEAN_MOTION_DOT = .10224E-3
MEAN_MOTION_DDOT = 0

CCSDS_OMM_VERS = 2.0
CREATION_DATE  = 
ORIGINATOR     = 

OBJECT_NAME    = UNKNOWN
OBJECT_ID      = 
CENTER_NAME    = EARTH
REF_FRAME      = TEME
TIME_SYSTEM    = UTC
MEAN_ELEMENT_THEORY = SGP/SGP4

EPOCH          = 2026-01-12T17:14:04.679808
MEAN_MOTION    = 14.04664298
ECCENTRICITY   = .00083372
INCLINATION    = 82.5523
RA_OF_ASC_NODE = 13.2162
ARG_OF_PERICENTER = 306.3832
MEAN_ANOMALY   = 53.6570

EPHEMERIS_TYPE = 0
CLASSIFICATION_TYPE = U
NORAD_CAT_ID   = 270039
ELEMENT_SET_NO = 999
REV_AT_EPOCH   = 31307
BSTAR          = .17360133E-2
MEAN_MOTION_DOT = .2792E-4
MEAN_MOTION_DDOT = 0

CCSDS_OMM_VERS = 2.0
CREATION_DATE  = 
ORIGINATOR     = 

OBJECT_NAME    = UNKNOWN
OBJECT_ID      = 
CENTER_NAME    = EARTH
REF_FRAME      = TEME
TIME_SYSTEM    = UTC
MEAN_ELEMENT_THEORY = SGP/SGP4

EPOCH          = 2026-01-04T08:29:34.001664
MEAN_MOTION    = 12.53355619
ECCENTRICITY   = .00271864
INCLINATION    = 101.4065
RA_OF_ASC_NODE = 48.9975
ARG_OF_PERICENTER = 180.3669
MEAN_ANOMALY   = 179.7388

EPHEMERIS_TYPE = 0
CLASSIFICATION_TYPE = U
NORAD_CAT_ID   = 270040
ELEMENT_SET_NO = 999
REV_AT_EPOCH   = 27934
BSTAR          = .41193787E-3
MEAN_MOTION_DOT = .23E-6
MEAN_MOTION_DDOT = 0

CCSDS_OMM_VERS = 2.0
CREATION_DATE  = 
ORIGINATOR     = 

OBJECT_NAME    = UNKNOWN
OBJECT_ID      = 
CENTER_NAME    = EARTH
REF_FRAME      = TEME
TIME_SYSTEM    = UTC
MEAN_ELEMENT_THEORY = SGP/SGP4

EPOCH          = 2026-01-11T00:36:13.965696
MEAN_MOTION    = 13.96298612
ECCENTRICITY   = .02191708
INCLINATION    = 98.4924
RA_OF_ASC_NODE = 122.1055
ARG_OF_PERICENTER = 293.9274
MEAN_ANOMALY   = 63.9073

EPHEMERIS_TYPE = 0
CLASSIFICATION_TYPE = U
NORAD_CAT_ID   = 270041
ELEMENT_SET_NO = 999
REV_AT_EPOCH   = 31112
BSTAR          = .11478643E-2
MEAN_MOTION_DOT = .1894E-4
MEAN_MOTION_DDOT = 0

CCSDS_OMM_VERS = 2.0
CREATION_DATE  = 
ORIGINATOR     = 

OBJECT_NAME    = UNKNOWN
OBJECT_ID      = 
CENTER_NAME    = EARTH
REF_FRAME      = TEME
TIME_SYSTEM    = UTC
MEAN_ELEMENT_THEORY = SGP/SGP4

EPOCH          = 2026-01-09T01:44:00.109536
MEAN_MOTION    = 12.26203820
ECCENTRICITY   = .01362916
INCLINATION    = 74.0224
RA_OF_ASC_NODE = 141.3181
ARG_OF_PERICENTER = 116.9073
MEAN_ANOMALY   = 244.5966

EPHEMERIS_TYPE = 0
CLASSIFICATION_TYPE = U
NORAD_CAT_ID   = 270042
ELEMENT_SET_NO = 999
REV_AT_EPOCH   = 27399
BSTAR          = .20752347E-3
MEAN_MOTION_DOT = .1E-6
MEAN_MOTION_DDOT = 0

CCSDS_OMM_VERS = 2.0
CREATION_DATE  = 
ORIGINATOR     = 

OBJECT_NAME    = UNKNOWN
OBJECT_ID      = 
CENTER_NAME    = EARTH
REF_FRAME      = TEME
TIME_SYSTEM    = UTC
MEAN_ELEMENT_THEORY = SGP/SGP4

EPOCH          = 2026-01-08T09:39:10.456704
MEAN_MOTION    = 13.92311174
ECCENTRICITY   = .02516229
INCLINATION    = 98.9085
RA_OF_ASC_NODE = 67.4283
ARG_OF_PERICENTER = 230.2758
MEAN_ANOMALY   = 127.5984

EPHEMERIS_TYPE = 0
CLASSIFICATION_TYPE = U
NORAD_CAT_ID   = 270043
ELEMENT_SET_NO = 999
REV_AT_EPOCH   = 30924
BSTAR          = .14194387E-2
MEAN_MOTION_DOT = .2318E-4
MEAN_MOTION_DDOT = 0

CCSDS_OMM_VERS = 2.0
CREATION_DATE  = 
ORIGINATOR     = 

OBJECT_NAME    = UNKNOWN
OBJECT_ID      = 
CENTER_NAME    = EARTH
REF_FRAME      = TEME
TIME_SYSTEM    = UTC
MEAN_ELEMENT_THEORY = SGP/SGP4

EPOCH          = 2026-01-12T17:51:08.165664
MEAN_MOTION    = 13.00601152
ECCENTRICITY   = .0014896
INCLINATION    = 90.2506
RA_OF_ASC_NODE = 9.8934
ARG_OF_PERICENTER = 285.3490
MEAN_ANOMALY   = 74.5987

EPHEMERIS_TYPE = 0
CLASSIFICATION_TYPE = U
NORAD_CAT_ID   = 270044
ELEMENT_SET_NO = 999
REV_AT_EPOCH   = 29060
BSTAR          = .31882135E-2
MEAN_MOTION_DOT = .975E-5
MEAN_MOTION_DDOT = 0

CCSDS_OMM_VERS = 2.0
CREATION_DATE  = 
ORIGINATOR     = 

OBJECT_NAME    = UNKNOWN
OBJECT_ID      = 
CENTER_NAME    = EARTH
REF_FRAME      = TEME
TIME_SYSTEM    = UTC
MEAN_ELEMENT_THEORY = SGP/SGP4

EPOCH          = 2026-01-09T17:55:14.460096
MEAN_MOTION    = 12.96422478
ECCENTRICITY   = .00381843
INCLINATION    = 90.2491
RA_OF_ASC_NODE = 9.8111
ARG_OF_PERICENTER = 187.5331
MEAN_ANOMALY   = 172.5220

EPHEMERIS_TYPE = 0
CLASSIFICATION_TYPE = U
NORAD_CAT_ID   = 270045
ELEMENT_SET_NO = 999
REV_AT_EPOCH   = 28962
BSTAR          = .18254588E-2
MEAN_MOTION_DOT = .531E-5
MEAN_MOTION_DDOT = 0

CCSDS_OMM_VERS = 2.0
CREATION_DATE  = 
ORIGINATOR     = 

OBJECT_NAME    = UNKNOWN
OBJECT_ID      = 
CENTER_NAME    = EARTH
REF_FRAME      = TEME
TIME_SYSTEM    = UTC
MEAN_ELEMENT_THEORY = SGP/SGP4

EPOCH          = 2026-01-11T17:07:51.878496
MEAN_MOTION    = 12.62581218
ECCENTRICITY   = .0056143
INCLINATION    = 73.9936
RA_OF_ASC_NODE = 5.7532
ARG_OF_PERICENTER = 65.1497
MEAN_ANOMALY   = 295.5384

EPHEMERIS_TYPE = 0
CLASSIFICATION_TYPE = U
NORAD_CAT_ID   = 270046
ELEMENT_SET_NO = 999
REV_AT_EPOCH   = 28223
BSTAR          = .65908791E-3
MEAN_MOTION_DOT = .103E-5
MEAN_MOTION_DDOT = 0

CCSDS_OMM_VERS = 2.0
CREATION_DATE  = 
ORIGINATOR     = 

OBJECT_NAME    = UNKNOWN
OBJECT_ID      = 
CENTER_NAME    = EARTH
REF_FRAME      = TEME
TIME_SYSTEM    = UTC
MEAN_ELEMENT_THEORY = SGP/SGP4

EPOCH          = 2026-01-13T08:39:48.951936
MEAN_MOTION    = 13.77791581
ECCENTRICITY   = .00325499
INCLINATION    = 82.9678
RA_OF_ASC_NODE = 251.6878
ARG_OF_PERICENTER = 292.3967
MEAN_ANOMALY   = 67.3743

EPHEMERIS_TYPE = 0
CLASSIFICATION_TYPE = U
NORAD_CAT_ID   = 270053
ELEMENT_SET_NO = 999
REV_AT_EPOCH   = 30793
BSTAR          = .35739617E-3
MEAN_MOTION_DOT = .374E-5
MEAN_MOTION_DDOT = 0

CCSDS_OMM_VERS = 2.0
CREATION_DATE  = 
ORIGINATOR     = 

OBJECT_NAME    = UNKNOWN
OBJECT_ID      = 
CENTER_NAME    = EARTH
REF_FRAME      = TEME
TIME_SYSTEM    = UTC
MEAN_ELEMENT_THEORY = SGP/SGP4

EPOCH          = 2026-01-11T16:11:39.113664
MEAN_MOTION    = 12.98536401
ECCENTRICITY   = .00296564
INCLINATION    = 90.2147
RA_OF_ASC_NODE = 344.4733
ARG_OF_PERICENTER = 64.2657
MEAN_ANOMALY   = 296.1520

EPHEMERIS_TYPE = 0
CLASSIFICATION_TYPE = U
NORAD_CAT_ID   = 270054
ELEMENT_SET_NO = 999
REV_AT_EPOCH   = 29020
BSTAR          = -.39914688E-3
MEAN_MOTION_DOT = -.11E-5
MEAN_MOTION_DDOT = 0

CCSDS_OMM_VERS = 2.0
CREATION_DATE  = 
ORIGINATOR     = 

OBJECT_NAME    = UNKNOWN
OBJECT_ID      = 
CENTER_NAME    = EARTH
REF_FRAME      = TEME
TIME_SYSTEM    = UTC
MEAN_ELEMENT_THEORY = SGP/SGP4

EPOCH          = 2026-01-07T16:44:06.273312
MEAN_MOTION    = 12.99294261
ECCENTRICITY   = .00323384
INCLINATION    = 90.2430
RA_OF_ASC_NODE = 1.4279
ARG_OF_PERICENTER = 63.6286
MEAN_ANOMALY   = 296.8150

EPHEMERIS_TYPE = 0
CLASSIFICATION_TYPE = U
NORAD_CAT_ID   = 270055
ELEMENT_SET_NO = 999
REV_AT_EPOCH   = 28997
BSTAR          = -.55550336E-3
MEAN_MOTION_DOT = -.158E-5
MEAN_MOTION_DDOT = 0

CCSDS_OMM_VERS = 2.0
CREATION_DATE  = 
ORIGINATOR     = 

OBJECT_NAME    = UNKNOWN
OBJECT_ID      = 
CENTER_NAME    = EARTH
REF_FRAME      = TEME
TIME_SYSTEM    = UTC
MEAN_ELEMENT_THEORY = SGP/SGP4

EPOCH          = 2026-01-09T23:20:39.373152
MEAN_MOTION    = 12.46190399
ECCENTRICITY   = .00834213
INCLINATION    = 101.5892
RA_OF_ASC_NODE = 109.4495
ARG_OF_PERICENTER = 90.2646
MEAN_ANOMALY   = 270.7982

EPHEMERIS_TYPE = 0
CLASSIFICATION_TYPE = U
NORAD_CAT_ID   = 270056
ELEMENT_SET_NO = 999
REV_AT_EPOCH   = 27847
BSTAR          = .17717491E-2
MEAN_MOTION_DOT = .217E-5
MEAN_MOTION_DDOT = 0

CCSDS_OMM_VERS = 2.0
CREATION_DATE  = 
ORIGINATOR     = 

OBJECT_NAME    = UNKNOWN
OBJECT_ID      = 
CENTER_NAME    = EARTH
REF_FRAME      = TEME
TIME_SYSTEM    = UTC
MEAN_ELEMENT_THEORY = SGP/SGP4

EPOCH          = 2026-01-12T17:05:07.049760
MEAN_MOTION    = 12.96034929
ECCENTRICITY   = .00430221
INCLINATION    = 90.2506
RA_OF_ASC_NODE = 9.7400
ARG_OF_PERICENTER = 198.7660
MEAN_ANOMALY   = 161.1876

EPHEMERIS_TYPE = 0
CLASSIFICATION_TYPE = U
NORAD_CAT_ID   = 270057
ELEMENT_SET_NO = 999
REV_AT_EPOCH   = 29000
BSTAR          = .44095815E-3
MEAN_MOTION_DOT = .133E-5
MEAN_MOTION_DDOT = 0

CCSDS_OMM_VERS = 2.0
CREATION_DATE  = 
ORIGINATOR     = 

OBJECT_NAME    = UNKNOWN
OBJECT_ID      = 
CENTER_NAME    = EARTH
REF_FRAME      = TEME
TIME_SYSTEM    = UTC
MEAN_ELEMENT_THEORY = SGP/SGP4

EPOCH          = 2026-01-13T04:55:42.360960
MEAN_MOTION    = 12.97951879
ECCENTRICITY   = .00297279
INCLINATION    = 90.2344
RA_OF_ASC_NODE = 1.9266
ARG_OF_PERICENTER = 87.1940
MEAN_ANOMALY   = 273.2583

EPHEMERIS_TYPE = 0
CLASSIFICATION_TYPE = U
NORAD_CAT_ID   = 270058
ELEMENT_SET_NO = 999
REV_AT_EPOCH   = 29043
BSTAR          = .40282394E-3
MEAN_MOTION_DOT = .126E-5
MEAN_MOTION_DDOT = 0

CCSDS_OMM_VERS = 2.0
CREATION_DATE  = 
ORIGINATOR     = 

OBJECT_NAME    = UNKNOWN
OBJECT_ID      = 
CENTER_NAME    = EARTH
REF_FRAME      = TEME
TIME_SYSTEM    = UTC
MEAN_ELEMENT_THEORY = SGP/SGP4

EPOCH          = 2026-01-12T05:43:07.056768
MEAN_MOTION    = 12.23005249
ECCENTRICITY   = .01301046
INCLINATION    = 73.9982
RA_OF_ASC_NODE = 6.4052
ARG_OF_PERICENTER = 352.4382
MEAN_ANOMALY   = 7.4689

EPHEMERIS_TYPE = 0
CLASSIFICATION_TYPE = U
NORAD_CAT_ID   = 270059
ELEMENT_SET_NO = 999
REV_AT_EPOCH   = 27371
BSTAR          = .79702823E-3
MEAN_MOTION_DOT = .73E-6
MEAN_MOTION_DDOT = 0

